NUSAT-1 (FRESCO)        
1 41557U 16033B   22233.88920926  .00012764  00000+0  36510-3 0  9998
2 41557  97.3895 331.7644 0011562 138.4159   0.2843 15.36034152347426
BEESAT-4                
1 41619U 16040W   22233.37146289  .00010754  00000+0  34330-3 0  9996
2 41619  97.2122 282.3149 0007750 236.0689 123.9817 15.32627215330661
CAS-2T & KS-1Q          
1 41847U 16066G   22233.78998420  .00000467  00000+0  79801-4 0  9997
2 41847  98.5464 298.3742 0363690  14.6235 346.5146 14.38697950303743
NAYIF-1 (EO-88)         
1 42017U 17008BX  22233.14483503  .00013363  00000+0  37825-3 0  9993
2 42017  97.2643 298.3826 0004969  33.1442 327.0113 15.36402316307008
ZHUHAI-1 02 (CAS-4B)    
1 42759U 17034B   22233.78314041  .00003384  00000+0  20462-3 0  9996
2 42759  43.0192 332.4990 0010065 334.0254 159.4894 15.12295219286240
ZHUHAI-1 01 (CAS-4A)    
1 42761U 17034D   22233.74974949  .00003343  00000+0  20184-3 0  9990
2 42761  43.0188 331.4201 0010732 337.1362 159.9020 15.12381265286240
MAX VALIER SAT          
1 42778U 17036P   22233.11416480  .00005985  00000+0  22216-3 0  9994
2 42778  97.2012 272.0137 0012581  96.9818 263.2853 15.27866353286776
RADFXSAT (FOX-1B)       
1 43017U 17073E   22233.27397822  .00003321  00000+0  25187-3 0  9999
2 43017  97.6662 124.8047 0246651 335.8899  23.0924 14.81841106256713
FOX-1D (AO-92)          
1 43137U 18004AC  22233.76254703  .00007988  00000+0  27371-3 0  9991
2 43137  97.3653 308.3653 0008899 125.0096 235.1982 15.30431311256328
DIWATA-2B               
1 43678U 18084H   22233.76163882  .00000831  00000+0  87186-4 0  9997
2 43678  97.9796   7.8271 0011289  72.2396 288.0018 14.92265016207598
ES'HAIL 2               
1 43700U 18090A   22233.84934653  .00000140  00000+0  00000+0 0  9999
2 43700   0.0165 108.4742 0002141  89.6853 103.5197  1.00274664 13922
FOX-1CLIFF (AO-95)      
1 43770U 18099N   22233.17827055  .00001875  00000+0  16886-3 0  9997
2 43770  97.6158 297.8433 0015107  62.2814 297.9938 14.96690251202691
ITASAT 1                
1 43786U 18099AE  22233.43338308  .00001130  00000+0  10347-3 0  9991
2 43786  97.6191 299.0452 0015825  53.7320 306.5361 14.96803975202779
JY1SAT (JO-97)          
1 43803U 18099AX  22233.42844539  .00001393  00000+0  12459-3 0  9995
2 43803  97.6154 298.8155 0015657  52.6272 307.6373 14.97359003202798
UWE-4                   
1 43880U 18111E   22233.71505815  .00001252  00000+0  10960-3 0  9997
2 43880  97.6618 138.8829 0013121  98.1955 262.0757 14.98444760197470
NEXUS (FO-99)           
1 43937U 19003F   22233.64345523  .00008356  00000+0  27128-3 0  9997
2 43937  97.1275 264.5017 0017838 280.6725  79.2509 15.32032559199951
PSAT2 (NO-104)          
1 44354U 19036R   22232.94862452  .00044877 -59005-5  35284-3 0  9990
2 44354  28.5248  89.0750 0209617 341.4277  17.8766 15.45778261174657
JAISAT-1                
1 44419U 19038F   22233.44258262  .00005611  00000+0  27702-3 0  9991
2 44419  97.6404 204.1449 0016817 265.9063  94.0248 15.18179956172911
DUCHIFAT-3              
1 44854U 19089C   22233.91118410  .00002887  00000+0  22535-3 0  9993
2 44854  36.9651  72.1764 0008232  21.9336 110.6575 15.01428156147777
CAS-6 (TIANQIN 1)       
1 44881U 19093C   22233.81106542  .00000415  00000+0  59255-4 0  9995
2 44881  97.8908 312.0777 0014548 339.2482  20.8131 14.81789963144457
RS-44 & BREEZE-KM R/B   
1 44909U 19096E   22233.39513874  .00000033  00000+0  82751-4 0  9995
2 44909  82.5235 187.1336 0217513 167.5961 193.0618 12.79714423123819
ORBITAL FACTORY 2 (OF-2)
1 45113U 19071C   22232.84441757  .00021155  00000+0  40011-3 0  9995
2 45113  51.6374 101.8656 0008954  56.0856 304.0982 15.48311402143345
HUSKYSAT-1 (HO-107)     
1 45119U 19071J   22233.15423363  .00019013  00000+0  37686-3 0  9993
2 45119  51.6373 100.9048 0008987  52.8343 307.3464 15.47029614143370
BY70-2                  
1 45857U 20042B   22233.79716791  .00005154  00000+0  67992-3 0  9996
2 45857  97.9533 310.0385 0008871 261.5439  98.4796 14.80473761115125
SALSAT                  
1 46495U 20068K   22233.46948443  .00001663  00000+0  12215-3 0  9997
2 46495  97.7309 174.8080 0017788  59.9335 300.3652 15.04731412103964
BY70-3                  
1 46839U 20079N   22233.81029520  .00023551  00000+0  50915-3 0  9995
2 46839  97.1937 305.1434 0006748  96.7772  37.5115 15.44472421100323
RADFXSAT-2 (AO-109)     
1 47311U 21002C   22233.21605061  .00007040  00000+0  27801-3 0  9995
2 47311  60.6854 118.2947 0028112  24.5240 335.7178 15.26167398 88345
UVSQ-SAT                
1 47438U 21006AB  22233.16279627  .00004803  00000+0  25075-3 0  9993
2 47438  97.4328 290.8532 0012957  56.2674 303.9792 15.16318427 87088
DIY-1 (ARDUIQUBE)       
1 47963U 21022AH  22233.16903534  .00010934  00000+0  58490-3 0  9994
2 47963  97.5246 133.8323 0013902 269.4405  90.5234 15.15151479 76748
XW-3 (CAS-9)            
1 50466U 21131B   22233.83338605  .00000056  00000+0  32888-4 0  9990
2 50466  98.5781 311.0496 0003551 325.6939  34.4018 14.38516649 34314
TEVEL-3                 
1 50988U 22002E   22233.76483426  .00006248  00000+0  33659-3 0  9996
2 50988  97.4768 299.6724 0009268 188.8994 266.9828 15.15126429 33300
TEVEL-8                 
1 50989U 22002F   22233.78039021  .00006400  00000+0  34516-3 0  9990
2 50989  97.4784 299.7124 0009272 187.8864 312.6811 15.15074567 33300
TEVEL-5                 
1 50998U 22002Q   22233.76483410  .00006491  00000+0  34459-3 0  9999
2 50998  97.4759 299.8031 0010967 185.2419 270.6003 15.15618471 33316
TEVEL-6                 
1 50999U 22002R   22233.77292749  .00006453  00000+0  34256-3 0  9997
2 50999  97.4761 299.8085 0010805 185.3458 317.5170 15.15622620 33311
TEVEL-1                 
1 51013U 22002AF  22233.77667319  .00006270  00000+0  33800-3 0  9995
2 51013  97.4769 299.6632 0009294 188.3357 314.2436 15.15100727 33301
TEVEL-7                 
1 51062U 22002CG  22233.78157818  .00006446  00000+0  34774-3 0  9994
2 51062  97.4778 299.7009 0009250 186.9926 310.7846 15.15066438 33308
TEVEL-4                 
1 51063U 22002CH  22233.78239688  .00006454  00000+0  34826-3 0  9998
2 51063  97.4781 299.6976 0009214 186.8381 310.8779 15.15057321 33306
TEVEL-2                 
1 51069U 22002CP  22233.77416862  .00006289  00000+0  33882-3 0  9991
2 51069  97.4766 299.6674 0009216 188.8528 310.6825 15.15119163 33300
RS3S                    
1 53308U 98067TT  22233.79811834  .00038190  00000+0  62386-3 0  9990
2 53308  51.6421  11.3318 0001899 132.7775 227.3374 15.52172724  4903
RS1S                    
1 53309U 98067TU  22233.66861359  .00034365  00000+0  56145-3 0  9990
2 53309  51.6419  11.9660 0002428 154.8376 205.2733 15.52218758  4832
RS5S                    
1 53310U 98067TV  22233.79763487  .00036932  00000+0  60383-3 0  9990
2 53310  51.6424  11.3289 0002136 156.6927 203.4160 15.52164209  4889
RS6S                    
1 53311U 98067TW  22233.79574068  .00038111  00000+0  61826-3 0  9990
2 53311  51.6418  11.3150 0001647 121.0769 239.0383 15.52367683  4902
RS9S                    
1 53312U 98067TX  22233.79631655  .00038033  00000+0  61879-3 0  9998
2 53312  51.6423  11.3190 0002583 159.0149 201.0947 15.52285872  4843
RS12S                   
1 53313U 98067TY  22233.79542902  .00037111  00000+0  60305-3 0  9994
2 53313  51.6423  11.3139 0002125 166.4526 193.6522 15.52333074  4898
RS4S                    
1 53321U 98067TZ  22233.79857777  .00038433  00000+0  62789-3 0  9998
2 53321  51.6426  11.3362 0001966 143.2474 216.8651 15.52166417  4891
RS29S (SXC3-2110 CYCLO*)
1 53373U 22096D   22233.79145587  .00007540  00000+0  30892-3 0  9998
2 53373  97.4350 135.1641 0003215 107.7663 340.1327 15.24566224  1900
RS32S (SXC3-212 MONITO*)
1 53374U 22096E   22233.79034073  .00007900  00000+0  32246-3 0  9991
2 53374  97.4353 135.1657 0003550 104.5482 341.9374 15.24674310  1904
RS34S (SXC3-218 KUZBAS*)
1 53375U 22096F   22233.79052284  .00006337  00000+0  25927-3 0  9997
2 53375  97.4353 135.1675 0003449 102.8397 345.5818 15.24678983  1901
RS23S (SXC3-21 UTMN)    
1 53376U 22096G   22233.92954612  .00007101  00000+0  28978-3 0  9998
2 53376  97.4351 135.3049 0003550 102.1534  30.4292 15.24722877  1926
RS28S (SXC3-214 MIET-A*)
1 53377U 22096H   22233.78940898  .00006808  00000+0  27774-3 0  9990
2 53377  97.4355 135.1683 0003470 101.6877 343.5234 15.24746685  1903
RS26S (KAI-1)           
1 53378U 22096J   22233.78909005  .00006079  00000+0  24809-3 0  9992
2 53378  97.4351 135.1671 0003434  97.9235 347.3078 15.24778342  1905
RS19S (SXC3-219 ISOI)   
1 53381U 22096M   22233.78633497  .00006628  00000+0  26691-3 0  9996
2 53381  97.4342 135.1723 0005866  60.5742  27.5637 15.25186476  1907
RS21S (CUBESX-HSE-2)    
1 53383U 22096P   22233.77805332  .00006792  00000+0  27290-3 0  9994
2 53383  97.4355 135.1630 0006149  58.0622 347.4232 15.25248961  1907
RS30S (SXC3-217 SIREN)  
1 53384U 22096Q   22233.91275556  .00006646  00000+0  26694-3 0  9995
2 53384  97.4346 135.2986 0006156  57.6742   8.0056 15.25270034  1921
RS20S (GEOSCAN-EDELVEIS)
1 53385U 22096R   22233.77692181  .00007732  00000+0  30855-3 0  9998
2 53385  97.4342 135.1670 0006644  58.7563 348.1175 15.25429802  1932
RS33S (SXC3-215 VIZARD) 
1 53386U 22096S   22233.78250809  .00009436  00000+0  37319-3 0  9992
2 53386  97.4342 135.1771 0007345  58.2820  28.7046 15.25660912  1921
CUTE-1 (CO-55)          
1 27844U 03031E   22233.56139603  .00000157  00000+0  89819-4 0  9998
2 27844  98.6799 240.2670 0008628 274.6953  85.3239 14.22482140993128
CUBESAT XI-IV (CO-57)   
1 27848U 03031J   22233.54473782  .00000129  00000+0  78069-4 0  9993
2 27848  98.6844 240.7566 0008592 290.7394  69.2862 14.22035292992933
CUBESAT XI-V            
1 28895U 05043F   22233.29420075  .00000598  00000+0  12197-3 0  9999
2 28895  98.1145   3.7050 0015395 299.3711  60.5954 14.64433687896909
